{
  "type": "FeatureCollection",
  "features": [
    {
      "type": "Feature",
      "properties": {
        "norad_id": 28890,
        "name": "BEIJING 1",
        "group": "dmc",
        "lat": -58.23789458459437,
        "lon": 121.47093604123825,
        "alt_km": 697.6000976953383,
        "timestamp": "2025-12-06T09:34:16.584391+00:00",
        "meta_object_name": "BEIJING 1",
        "meta_object_id": "2005-043A",
        "meta_epoch": "2025-12-05T22:21:17.826048",
        "meta_mean_motion": 14.63356009,
        "meta_eccentricity": 0.00149973,
        "meta_inclination": 98.2657,
        "meta_ra_of_asc_node": 107.4226,
        "meta_arg_of_pericenter": 161.9883,
        "meta_mean_anomaly": 198.1854,
        "meta_ephemeris_type": 0,
        "meta_classification_type": "U",
        "meta_norad_cat_id": 28890,
        "meta_element_set_no": 999,
        "meta_rev_at_epoch": 7238,
        "meta_bstar": 0.000161346,
        "meta_mean_motion_dot": 7.86e-06,
        "meta_mean_motion_ddot": 0,
        "tle_line1": "1 28890U 05043A   25339.93145632  .00000786  00000+0  16135-3 0  9993",
        "tle_line2": "2 28890  98.2657 107.4226 0014997 161.9883 198.1854 14.63356009 72387"
      },
      "geometry": {
        "type": "Point",
        "coordinates": [
          121.47093604123825,
          -58.23789458459437
        ]
      }
    },
    {
      "type": "Feature",
      "properties": {
        "norad_id": 33320,
        "name": "HUANJING 1A (HJ-1A)",
        "group": "dmc",
        "lat": -51.57232469147848,
        "lon": 139.20441020155667,
        "alt_km": 640.0591504139784,
        "timestamp": "2025-12-06T09:34:16.584415+00:00",
        "meta_object_name": "HUANJING 1A (HJ-1A)",
        "meta_object_id": "2008-041A",
        "meta_epoch": "2025-12-05T22:48:54.376704",
        "meta_mean_motion": 14.83360733,
        "meta_eccentricity": 0.00205374,
        "meta_inclination": 97.6532,
        "meta_ra_of_asc_node": 328.5328,
        "meta_arg_of_pericenter": 55.6627,
        "meta_mean_anomaly": 304.6527,
        "meta_ephemeris_type": 0,
        "meta_classification_type": "U",
        "meta_norad_cat_id": 33320,
        "meta_element_set_no": 999,
        "meta_rev_at_epoch": 92975,
        "meta_bstar": 0.00035056487,
        "meta_mean_motion_dot": 2.833e-05,
        "meta_mean_motion_ddot": 0,
        "tle_line1": "1 33320U 08041A   25339.95062936  .00002833  00000+0  35056-3 0  9993",
        "tle_line2": "2 33320  97.6532 328.5328 0020537  55.6627 304.6527 14.83360733929751"
      },
      "geometry": {
        "type": "Point",
        "coordinates": [
          139.20441020155667,
          -51.57232469147848
        ]
      }
    },
    {
      "type": "Feature",
      "properties": {
        "norad_id": 33321,
        "name": "HUANJING 1B (HJ-1B)",
        "group": "dmc",
        "lat": 71.98290691488027,
        "lon": 177.04736866008915,
        "alt_km": 587.2626345240787,
        "timestamp": "2025-12-06T09:34:16.584429+00:00",
        "meta_object_name": "HUANJING 1B (HJ-1B)",
        "meta_object_id": "2008-041B",
        "meta_epoch": "2025-12-05T23:22:42.251232",
        "meta_mean_motion": 14.82793943,
        "meta_eccentricity": 0.00382466,
        "meta_inclination": 97.6392,
        "meta_ra_of_asc_node": 332.2699,
        "meta_arg_of_pericenter": 97.2246,
        "meta_mean_anomaly": 263.3318,
        "meta_ephemeris_type": 0,
        "meta_classification_type": "U",
        "meta_norad_cat_id": 33321,
        "meta_element_set_no": 999,
        "meta_rev_at_epoch": 92977,
        "meta_bstar": 0.00028713902,
        "meta_mean_motion_dot": 2.3e-05,
        "meta_mean_motion_ddot": 0,
        "tle_line1": "1 33321U 08041B   25339.97410013  .00002300  00000+0  28714-3 0  9991",
        "tle_line2": "2 33321  97.6392 332.2699 0038246  97.2246 263.3318 14.82793943929777"
      },
      "geometry": {
        "type": "Point",
        "coordinates": [
          177.04736866008915,
          71.98290691488027
        ]
      }
    },
    {
      "type": "Feature",
      "properties": {
        "norad_id": 33446,
        "name": "YAOGAN-4",
        "group": "dmc",
        "lat": 20.735620087135686,
        "lon": -92.45949925653883,
        "alt_km": 612.9598427940073,
        "timestamp": "2025-12-06T09:34:16.584442+00:00",
        "meta_object_name": "YAOGAN-4",
        "meta_object_id": "2008-061A",
        "meta_epoch": "2025-12-05T18:53:59.849664",
        "meta_mean_motion": 14.82648614,
        "meta_eccentricity": 0.00141806,
        "meta_inclination": 97.9174,
        "meta_ra_of_asc_node": 269.9554,
        "meta_arg_of_pericenter": 346.5672,
        "meta_mean_anomaly": 13.5162,
        "meta_ephemeris_type": 0,
        "meta_classification_type": "U",
        "meta_norad_cat_id": 33446,
        "meta_element_set_no": 999,
        "meta_rev_at_epoch": 91700,
        "meta_bstar": 0.00037378722,
        "meta_mean_motion_dot": 2.964e-05,
        "meta_mean_motion_ddot": 0,
        "tle_line1": "1 33446U 08061A   25339.78749826  .00002964  00000+0  37379-3 0  9990",
        "tle_line2": "2 33446  97.9174 269.9554 0014180 346.5672  13.5162 14.82648614917005"
      },
      "geometry": {
        "type": "Point",
        "coordinates": [
          -92.45949925653883,
          20.735620087135686
        ]
      }
    },
    {
      "type": "Feature",
      "properties": {
        "norad_id": 35681,
        "name": "DEIMOS-1",
        "group": "dmc",
        "lat": -32.889638019010846,
        "lon": 146.32711209641468,
        "alt_km": 652.5719222577927,
        "timestamp": "2025-12-06T09:34:16.584453+00:00",
        "meta_object_name": "DEIMOS-1",
        "meta_object_id": "2009-041A",
        "meta_epoch": "2025-12-05T22:19:27.791328",
        "meta_mean_motion": 14.74936163,
        "meta_eccentricity": 0.00026874,
        "meta_inclination": 97.7153,
        "meta_ra_of_asc_node": 140.851,
        "meta_arg_of_pericenter": 92.6109,
        "meta_mean_anomaly": 267.5408,
        "meta_ephemeris_type": 0,
        "meta_classification_type": "U",
        "meta_norad_cat_id": 35681,
        "meta_element_set_no": 999,
        "meta_rev_at_epoch": 87839,
        "meta_bstar": 0.00019777151,
        "meta_mean_motion_dot": 1.281e-05,
        "meta_mean_motion_ddot": 0,
        "tle_line1": "1 35681U 09041A   25339.93018277  .00001281  00000+0  19777-3 0  9991",
        "tle_line2": "2 35681  97.7153 140.8510 0002687  92.6109 267.5408 14.74936163878397"
      },
      "geometry": {
        "type": "Point",
        "coordinates": [
          146.32711209641468,
          -32.889638019010846
        ]
      }
    },
    {
      "type": "Feature",
      "properties": {
        "norad_id": 35683,
        "name": "UK-DMC 2",
        "group": "dmc",
        "lat": -33.05115018299713,
        "lon": 120.63542056248274,
        "alt_km": 650.0809791779284,
        "timestamp": "2025-12-06T09:34:16.584464+00:00",
        "meta_object_name": "UK-DMC 2",
        "meta_object_id": "2009-041C",
        "meta_epoch": "2025-12-05T22:19:48.896256",
        "meta_mean_motion": 14.75598285,
        "meta_eccentricity": 0.00013552,
        "meta_inclination": 97.8562,
        "meta_ra_of_asc_node": 115.0259,
        "meta_arg_of_pericenter": 102.7457,
        "meta_mean_anomaly": 257.3904,
        "meta_ephemeris_type": 0,
        "meta_classification_type": "U",
        "meta_norad_cat_id": 35683,
        "meta_element_set_no": 999,
        "meta_rev_at_epoch": 87806,
        "meta_bstar": 0.00029955195,
        "meta_mean_motion_dot": 1.994e-05,
        "meta_mean_motion_ddot": 0,
        "tle_line1": "1 35683U 09041C   25339.93042704  .00001994  00000+0  29955-3 0  9995",
        "tle_line2": "2 35683  97.8562 115.0259 0001355 102.7457 257.3904 14.75598285878060"
      },
      "geometry": {
        "type": "Point",
        "coordinates": [
          120.63542056248274,
          -33.05115018299713
        ]
      }
    },
    {
      "type": "Feature",
      "properties": {
        "norad_id": 40715,
        "name": "DMC3-FM1",
        "group": "dmc",
        "lat": 27.687763405263937,
        "lon": 31.87697485405486,
        "alt_km": 614.6322815170888,
        "timestamp": "2025-12-06T09:34:16.584475+00:00",
        "meta_object_name": "DMC3-FM1",
        "meta_object_id": "2015-032A",
        "meta_epoch": "2025-12-05T21:34:21.389952",
        "meta_mean_motion": 14.85422198,
        "meta_eccentricity": 0.00051188,
        "meta_inclination": 97.6698,
        "meta_ra_of_asc_node": 207.3404,
        "meta_arg_of_pericenter": 345.9388,
        "meta_mean_anomaly": 14.1685,
        "meta_ephemeris_type": 0,
        "meta_classification_type": "U",
        "meta_norad_cat_id": 40715,
        "meta_element_set_no": 999,
        "meta_rev_at_epoch": 56121,
        "meta_bstar": 0.00018313828,
        "meta_mean_motion_dot": 1.527e-05,
        "meta_mean_motion_ddot": 0,
        "tle_line1": "1 40715U 15032A   25339.89885868  .00001527  00000+0  18314-3 0  9994",
        "tle_line2": "2 40715  97.6698 207.3404 0005118 345.9388  14.1685 14.85422198561213"
      },
      "geometry": {
        "type": "Point",
        "coordinates": [
          31.87697485405486,
          27.687763405263937
        ]
      }
    },
    {
      "type": "Feature",
      "properties": {
        "norad_id": 40716,
        "name": "DMC3-FM2",
        "group": "dmc",
        "lat": 31.294977917998885,
        "lon": -155.44140208061873,
        "alt_km": 607.6104897842697,
        "timestamp": "2025-12-06T09:34:16.584485+00:00",
        "meta_object_name": "DMC3-FM2",
        "meta_object_id": "2015-032B",
        "meta_epoch": "2025-12-05T22:06:45.737280",
        "meta_mean_motion": 14.85423193,
        "meta_eccentricity": 0.00057566,
        "meta_inclination": 97.6761,
        "meta_ra_of_asc_node": 208.8011,
        "meta_arg_of_pericenter": 350.2659,
        "meta_mean_anomaly": 9.8444,
        "meta_ephemeris_type": 0,
        "meta_classification_type": "U",
        "meta_norad_cat_id": 40716,
        "meta_element_set_no": 999,
        "meta_rev_at_epoch": 56121,
        "meta_bstar": 0.0001778893,
        "meta_mean_motion_dot": 1.481e-05,
        "meta_mean_motion_ddot": 0,
        "tle_line1": "1 40716U 15032B   25339.92136270  .00001481  00000+0  17789-3 0  9999",
        "tle_line2": "2 40716  97.6761 208.8011 0005756 350.2659   9.8444 14.85423193561213"
      },
      "geometry": {
        "type": "Point",
        "coordinates": [
          -155.44140208061873,
          31.294977917998885
        ]
      }
    },
    {
      "type": "Feature",
      "properties": {
        "norad_id": 40717,
        "name": "DMC3-FM3",
        "group": "dmc",
        "lat": -80.10151961844223,
        "lon": -98.44402282076983,
        "alt_km": 618.6842867066443,
        "timestamp": "2025-12-06T09:34:16.584496+00:00",
        "meta_object_name": "DMC3-FM3",
        "meta_object_id": "2015-032C",
        "meta_epoch": "2025-12-05T22:37:50.226816",
        "meta_mean_motion": 14.85415112,
        "meta_eccentricity": 0.0005119,
        "meta_inclination": 97.6816,
        "meta_ra_of_asc_node": 210.4504,
        "meta_arg_of_pericenter": 352.3742,
        "meta_mean_anomaly": 7.7394,
        "meta_ephemeris_type": 0,
        "meta_classification_type": "U",
        "meta_norad_cat_id": 40717,
        "meta_element_set_no": 999,
        "meta_rev_at_epoch": 56122,
        "meta_bstar": 0.00014584401,
        "meta_mean_motion_dot": 1.205e-05,
        "meta_mean_motion_ddot": 0,
        "tle_line1": "1 40717U 15032C   25339.94294244  .00001205  00000+0  14584-3 0  9992",
        "tle_line2": "2 40717  97.6816 210.4504 0005119 352.3742   7.7394 14.85415112561224"
      },
      "geometry": {
        "type": "Point",
        "coordinates": [
          -98.44402282076983,
          -80.10151961844223
        ]
      }
    }
  ]
}